COSMOS 2251 DEB         
1 34962U 93036AER 26088.00470269  .00001596  00000+0  44600-3 0  9994
2 34962  74.0325 354.7953 0017004  86.3446 273.9657 14.46930579891157
COSMOS 2251 DEB         
1 34963U 93036AES 26087.59407641  .00003928  00000+0  96379-3 0  9993
2 34963  74.1701 205.0539 0041302   6.2261 353.9405 14.52192179883377
COSMOS 2251 DEB         
1 34964U 93036AET 26080.57484573  .00002443  00000+0  13561-2 0  9996
2 34964  73.9663 175.7370 0210671  12.3182 348.2987 14.01068370858626
COSMOS 2251 DEB         
1 34965U 93036AEU 26087.85157044  .00000983  00000+0  26558-3 0  9993
2 34965  74.0501 289.7680 0024989  28.3984 331.8531 14.48988336886507
COSMOS 2251 DEB         
1 34967U 93036AEW 26087.63167041  .00001922  00000+0  55563-3 0  9991
2 34967  73.9925  56.2299 0040089 182.0842 178.0155 14.44781679664863
COSMOS 2251 DEB         
1 34968U 93036AEX 26087.87627524  .00000654  00000+0  13690-3 0  9991
2 34968  74.0393  44.7107 0085868 139.7687 220.9878 14.59595047900269
COSMOS 2251 DEB         
1 34969U 93036AEY 26087.98301657  .00000745  00000+0  27632-3 0  9992
2 34969  74.0148 188.9710 0075613 295.6351  63.7001 14.32455242666584
COSMOS 2251 DEB         
1 34971U 93036AFA 26087.24842876  .00000868  00000+0  19848-3 0  9993
2 34971  73.9757  84.3352 0071506 283.5666  90.3931 14.55824445677089
COSMOS 2251 DEB         
1 34972U 93036AFB 26087.74102324  .00010059  00000+0  14754-2 0  9999
2 34972  73.9866 202.3732 0034839 329.2750 156.0541 14.75232982892127
COSMOS 2251 DEB         
1 34976U 93036AFF 26087.11575156  .00006586  00000+0  89111-3 0  9991
2 34976  74.0545  99.6932 0042970 122.9759 300.3647 14.78535809898302
COSMOS 2251 DEB         
1 34979U 93036AFJ 26088.18387417  .00012828  00000+0  16118-2 0  9995
2 34979  74.0386  57.4859 0044818 112.8403 247.7516 14.81433379897957
COSMOS 2251 DEB         
1 34990U 93036AFN 26083.67711200  .00001117  00000+0  34346-3 0  9991
2 34990  74.0439  62.3148 0014066 107.9363 252.3328 14.42670407888165
COSMOS 2251 DEB         
1 34997U 93036AFV 26087.32883804  .00004219  00000+0  11151-2 0  9998
2 34997  73.8780 112.2104 0089593  65.2981 295.7471 14.46792098722739
COSMOS 2251 DEB         
1 34998U 93036AFW 26086.70564466  .00001519  00000+0  40015-3 0  9992
2 34998  74.0112 322.7143 0019826  85.8456 332.1415 14.49790180889416
COSMOS 2251 DEB         
1 35012U 93036AFZ 26086.91610978  .00000372  00000+0  10893-3 0  9990
2 35012  74.0181 275.4151 0079889  29.0927 331.4646 14.45675367890810
COSMOS 2251 DEB         
1 35014U 93036AGB 26085.03556574  .00008902  00000+0  12429-2 0  9998
2 35014  73.9977 200.7156 0009571 327.3827  32.6755 14.77754812728610
COSMOS 2251 DEB         
1 35015U 93036AGC 26087.63537819  .00002975  00000+0  78597-3 0  9991
2 35015  73.9488  35.6655 0076929 239.8736 294.0243 14.47586954669723
COSMOS 2251 DEB         
1 35016U 93036AGD 26087.02751582  .00001038  00000+0  34618-3 0  9995
2 35016  73.9270 100.0970 0113121 352.6963  37.5218 14.35307401882939
COSMOS 2251 DEB         
1 35018U 93036AGF 26087.83631098  .00001262  00000+0  10028-2 0  9992
2 35018  73.9755 295.1887 0347662 182.7185 177.2055 13.67454230846364
COSMOS 2251 DEB         
1 35020U 93036AGH 26088.15640502  .00001093  00000+0  20748-3 0  9994
2 35020  74.0488 355.0469 0088672  82.3961 278.7267 14.62993083897946
COSMOS 2251 DEB         
1 35022U 93036AGK 26082.39044732  .00001884  00000+0  38135-3 0  9996
2 35022  74.0233 129.4075 0048890 300.7019  58.9335 14.61303341606135
COSMOS 2251 DEB         
1 35023U 93036AGL 26087.99626941  .00023672  00000+0  18874-2 0  9992
2 35023  74.0387 357.4723 0027116  53.9122 321.2111 14.99956251898708
COSMOS 2251 DEB         
1 35025U 93036AGN 26087.63677101  .00003236  00000+0  47804-3 0  9999
2 35025  73.9372 215.3350 0081878 104.5142 256.5131 14.73414520902023
COSMOS 2251 DEB         
1 35026U 93036AGP 26084.39771619  .00000183  00000+0  48845-4 0  9994
2 35026  74.0449 124.9983 0084269 213.4182 160.9547 14.53698099896359
COSMOS 2251 DEB         
1 35028U 93036AGR 26088.21920167  .00000389  00000+0  89873-4 0  9999
2 35028  74.0368  68.8950 0083355 177.2544 194.9959 14.56676353898364
COSMOS 2251 DEB         
1 35031U 93036AGU 26088.19441544  .00000599  00000+0  20449-3 0  9993
2 35031  74.0372  63.1115 0018022 138.4731 221.7796 14.38421836668143
COSMOS 2251 DEB         
1 35032U 93036AGV 26087.45644799  .00003293  00000+0  67639-3 0  9995
2 35032  73.8517 163.5108 0067135 349.5408  25.9973 14.59659675892163
COSMOS 2251 DEB         
1 35033U 93036AGW 26086.37299720  .00002007  00000+0  50749-3 0  9992
2 35033  74.0289 339.5807 0012662  64.3398 295.9070 14.51578193674453
COSMOS 2251 DEB         
1 35038U 93036AHB 26087.79886762  .00004184  00000+0  16483-2 0  9996
2 35038  74.1058 211.9062 0111838 169.9614 342.3993 14.26070040870805
COSMOS 2251 DEB         
1 35043U 93036AHG 26087.28896469  .00025957  00000+0  29832-2 0  9994
2 35043  73.9486 196.5509 0086786  15.7759 344.6089 14.82985196689806
COSMOS 2251 DEB         
1 35045U 93036AHJ 26087.66377058  .00000990  00000+0  59208-3 0  9997
2 35045  73.7176 225.5881 0180581  91.8378 270.3446 14.00637909861268
COSMOS 2251 DEB         
1 35060U 93036AHP 26085.28019271  .00000990  00000+0  31017-3 0  9998
2 35060  74.0372  52.4912 0016908 120.8059 239.4763 14.41854620887340
COSMOS 2251 DEB         
1 35061U 93036AHQ 26087.44723630  .00003218  00000+0  54992-3 0  9993
2 35061  74.0426 101.4260 0040771 190.4454 169.5875 14.68782856901264
COSMOS 2251 DEB         
1 35062U 93036AHR 26086.89668440  .00004355  00000+0  17542-2 0  9991
2 35062  74.0774 264.5148 0126016 237.2578 121.6374 14.24066234869950
COSMOS 2251 DEB         
1 35065U 93036AHU 26086.50456414  .00001288  00000+0  36744-3 0  9996
2 35065  74.0221 358.7026 0018513 103.7345 256.5875 14.46107911698655
COSMOS 2251 DEB         
1 35071U 93036AJA 26087.88603089  .00011297  00000+0  73582-3 0  9999
2 35071  73.9320 314.7011 0067253 185.8592 174.1820 15.06110653691333
COSMOS 2251 DEB         
1 35073U 93036AJC 26087.78090699  .00057294  00000+0  33163-2 0  9994
2 35073  73.9912 112.5294 0015040 239.2899 120.6813 15.11855389690751
COSMOS 2251 DEB         
1 35284U 93036AJN 26087.70428460  .00000480  00000+0  16566-3 0  9995
2 35284  74.0476  69.2971 0015469 127.7618  53.9489 14.38442648670491
COSMOS 2251 DEB         
1 35287U 93036AJR 26087.74493223  .00000342  00000+0  12548-3 0  9994
2 35287  74.0280  81.3309 0017587 160.9767  20.8944 14.36471222884140
COSMOS 2251 DEB         
1 35288U 93036AJS 26087.51001858  .00005319  00000+0  94606-3 0  9993
2 35288  73.9500 170.2611 0037132  12.5866 347.6221 14.66922923894284
COSMOS 2251 DEB         
1 35290U 93036AJU 26088.06267226  .00019021  00000+0  22698-2 0  9996
2 35290  74.0030 208.8268 0006275 301.1610  58.8953 14.84209921895337
COSMOS 2251 DEB         
1 35433U 93036AKB 26086.93081495  .00000565  00000+0  20706-3 0  9993
2 35433  74.0337 145.6867 0026469 181.6577 351.9785 14.34936388880893
COSMOS 2251 DEB         
1 35434U 93036AKC 26088.06454700  .00001614  00000+0  66018-3 0  9995
2 35434  74.0425  21.6501 0084617  67.5894 293.4190 14.26079945876335
COSMOS 2251 DEB         
1 35435U 93036AKD 26086.76175546  .00014514  00000+0  18292-2 0  9992
2 35435  74.0084 256.7742 0008255 323.7805  50.5380 14.81980181890937
COSMOS 2251 DEB         
1 35439U 93036AKH 26087.88650088  .00002840  00000+0  17178-2 0  9990
2 35439  74.0226 312.7655 0241788  98.6045 281.8174 13.93398810854393
COSMOS 2251 DEB         
1 35440U 93036AKJ 26085.51105329  .00002351  00000+0  38825-3 0  9993
2 35440  74.0176   6.4241 0067801 123.4595 237.3083 14.69488884702893
COSMOS 2251 DEB         
1 35441U 93036AKK 26084.75729694  .00006927  00000+0  13012-2 0  9999
2 35441  74.1326 101.5939 0037170 318.4072  41.4270 14.64408569889373
COSMOS 2251 DEB         
1 35442U 93036AKL 26087.86533200  .00030398  00000+0  31725-2 0  9991
2 35442  74.0232 247.6580 0003143 238.6720 121.4154 14.89597842889302
COSMOS 2251 DEB         
1 35443U 93036AKM 26087.49788361  .00069323  00000+0  39259-2 0  9991
2 35443  73.9821 114.8017 0066457 237.9804 121.4921 15.10784802884673
COSMOS 2251 DEB         
1 35445U 93036AKP 26087.45881314  .00006036  00000+0  10685-2 0  9995
2 35445  74.0347  98.0888 0139364 160.8269 199.8220 14.61339970888724
COSMOS 2251 DEB         
1 35446U 93036AKQ 26087.79234602  .00000366  00000+0  89051-4 0  9990
2 35446  74.0444 117.6429 0076438 210.0655 149.6110 14.54752677895501
COSMOS 2251 DEB         
1 35448U 93036AKS 26086.85094232  .00002842  00000+0  66351-3 0  9999
2 35448  73.9011 248.9891 0010449  43.2946 316.9035 14.55182917888637
COSMOS 2251 DEB         
1 35451U 93036AKV 26088.11102326  .00152097  00000+0  22237-2 0  9990
2 35451  73.9232 229.9385 0024154  79.5529 280.8406 15.54675653690478
COSMOS 2251 DEB         
1 35453U 93036AKX 26081.58139220  .00002492  00000+0  80307-3 0  9995
2 35453  74.0095 196.0995 0068964 304.3300  55.1339 14.38433562876547
COSMOS 2251 DEB         
1 35455U 93036AKZ 26087.35860019  .00003282  00000+0  79539-3 0  9998
2 35455  74.0250  96.3521 0100512 176.8425 183.3393 14.50329026880749
COSMOS 2251 DEB         
1 35456U 93036ALA 26080.29237398  .00011742  00000+0  18254-2 0  9999
2 35456  73.9480 285.1767 0063535 112.6496 248.1411 14.71733310673246
COSMOS 2251 DEB         
1 35459U 93036ALD 26086.45124997  .00000627  00000+0  21748-3 0  9999
2 35459  73.8739 352.6319 0017875 274.8647  85.0465 14.37665614598665
COSMOS 2251 DEB         
1 35462U 93036ALG 26087.29022544  .00003540  00000+0  13265-2 0  9992
2 35462  74.0348  76.8365 0081948  87.4892 273.5636 14.30196864678893
COSMOS 2251 DEB         
1 35465U 93036ALK 26087.72630890  .00001255  00000+0  36101-3 0  9998
2 35465  74.0003 359.2961 0063517 136.4115 224.2087 14.44667303887722
